[Satellite]
VERSION=1.1
NAME=HIMAWARI-7 (MTSAT-2)
NICKNAME=HIMAWARI-7 (MTSAT-2)
TLE1=1 28937U 06004A   18020.92077934 -.00000239  00000-0  00000-0 0  9996
TLE2=2 28937   0.0605 276.1992 0003854  33.9539 286.5739  1.00273930 43709
